STARLINK-36301          
1 67932U 26037A   26085.50002314  .00039508  00000+0  67624-3 0  9993
2 67932  43.0000  96.9183 0001182 270.7878 269.0515 15.50563050  5815
STARLINK-36852          
1 67933U 26037B   26085.35668999  .00059291  00000+0  10059-2 0  9994
2 67933  43.0005  98.8871 0002114 290.1812  69.8821 15.50659839  5868
STARLINK-36861          
1 67934U 26037C   26085.50002314  .00159027  00000+0  26689-2 0  9999
2 67934  43.0002  97.1680 0001366 269.7983 168.9573 15.50504024  5900
STARLINK-36860          
1 67935U 26037D   26085.39267064  .00048449  00000+0  82667-3 0  9996
2 67935  42.9997  98.2832 0000969 272.9802  87.0948 15.50575611  5870
STARLINK-36848          
1 67936U 26037E   26085.33873168  .00062287  00000+0  10590-2 0  9990
2 67936  43.0021  98.7439 0002059 276.4368  83.6257 15.50581790  5866
STARLINK-36370          
1 67937U 26037F   26085.38761499  .00058659  00000+0  99725-3 0  9995
2 67937  43.0018  98.2452 0002120 265.8555  94.2063 15.50605787  5879
STARLINK-36371          
1 67938U 26037G   26085.50002314  .00159009  00000+0  26685-2 0  9999
2 67938  43.0003  97.3065 0001416 276.8891 105.2769 15.50505507  5905
STARLINK-36246          
1 67939U 26037H   26085.33330001  .00077538  00000+0  13142-2 0  9998
2 67939  42.9987  98.6964 0001313 273.0300  87.0410 15.50584947  5867
STARLINK-36907          
1 67940U 26037J   26085.50002314  .00115122  00000+0  19446-2 0  9997
2 67940  43.0002  96.9336 0001201 280.6845 251.9788 15.50504513  5903
STARLINK-36927          
1 67941U 26037K   26085.50002314  .00160419  00000+0  26917-2 0  9998
2 67941  43.0002  97.0995 0001205 265.6274 199.6285 15.50504180  5900
STARLINK-36914          
1 67942U 26037L   26085.50002314  .00117316  00000+0  19799-2 0  9997
2 67942  43.0001  96.6758 0001982 289.5889 347.5917 15.50518987  5907
STARLINK-36851          
1 67943U 26037M   26085.50002314  .00115703  00000+0  19543-2 0  9993
2 67943  43.0003  97.0657 0001303 296.4462 182.7565 15.50503533  5903
