CCSDS_OMM_VERS = 2.0
CREATION_DATE  = 
ORIGINATOR     = 

OBJECT_NAME    = STARLINK-36301
OBJECT_ID      = 2026-037A
CENTER_NAME    = EARTH
REF_FRAME      = TEME
TIME_SYSTEM    = UTC
MEAN_ELEMENT_THEORY = SGP/SGP4

EPOCH          = 2026-03-26T12:00:01.999296
MEAN_MOTION    = 15.50563050
ECCENTRICITY   = .0001182
INCLINATION    = 43.0000
RA_OF_ASC_NODE = 96.9183
ARG_OF_PERICENTER = 270.7878
MEAN_ANOMALY   = 269.0515

EPHEMERIS_TYPE = 0
CLASSIFICATION_TYPE = U
NORAD_CAT_ID   = 67932
ELEMENT_SET_NO = 999
REV_AT_EPOCH   = 581
BSTAR          = .67624E-3
MEAN_MOTION_DOT = .39508E-3
MEAN_MOTION_DDOT = 0

CCSDS_OMM_VERS = 2.0
CREATION_DATE  = 
ORIGINATOR     = 

OBJECT_NAME    = STARLINK-36852
OBJECT_ID      = 2026-037B
CENTER_NAME    = EARTH
REF_FRAME      = TEME
TIME_SYSTEM    = UTC
MEAN_ELEMENT_THEORY = SGP/SGP4

EPOCH          = 2026-03-26T08:33:38.015136
MEAN_MOTION    = 15.50659839
ECCENTRICITY   = .0002114
INCLINATION    = 43.0005
RA_OF_ASC_NODE = 98.8871
ARG_OF_PERICENTER = 290.1812
MEAN_ANOMALY   = 69.8821

EPHEMERIS_TYPE = 0
CLASSIFICATION_TYPE = U
NORAD_CAT_ID   = 67933
ELEMENT_SET_NO = 999
REV_AT_EPOCH   = 586
BSTAR          = .10059E-2
MEAN_MOTION_DOT = .59291E-3
MEAN_MOTION_DDOT = 0

CCSDS_OMM_VERS = 2.0
CREATION_DATE  = 
ORIGINATOR     = 

OBJECT_NAME    = STARLINK-36861
OBJECT_ID      = 2026-037C
CENTER_NAME    = EARTH
REF_FRAME      = TEME
TIME_SYSTEM    = UTC
MEAN_ELEMENT_THEORY = SGP/SGP4

EPOCH          = 2026-03-26T12:00:01.999296
MEAN_MOTION    = 15.50504024
ECCENTRICITY   = .0001366
INCLINATION    = 43.0002
RA_OF_ASC_NODE = 97.1680
ARG_OF_PERICENTER = 269.7983
MEAN_ANOMALY   = 168.9573

EPHEMERIS_TYPE = 0
CLASSIFICATION_TYPE = U
NORAD_CAT_ID   = 67934
ELEMENT_SET_NO = 999
REV_AT_EPOCH   = 590
BSTAR          = .26689E-2
MEAN_MOTION_DOT = .159027E-2
MEAN_MOTION_DDOT = 0

CCSDS_OMM_VERS = 2.0
CREATION_DATE  = 
ORIGINATOR     = 

OBJECT_NAME    = STARLINK-36860
OBJECT_ID      = 2026-037D
CENTER_NAME    = EARTH
REF_FRAME      = TEME
TIME_SYSTEM    = UTC
MEAN_ELEMENT_THEORY = SGP/SGP4

EPOCH          = 2026-03-26T09:25:26.743296
MEAN_MOTION    = 15.50575611
ECCENTRICITY   = .0000969
INCLINATION    = 42.9997
RA_OF_ASC_NODE = 98.2832
ARG_OF_PERICENTER = 272.9802
MEAN_ANOMALY   = 87.0948

EPHEMERIS_TYPE = 0
CLASSIFICATION_TYPE = U
NORAD_CAT_ID   = 67935
ELEMENT_SET_NO = 999
REV_AT_EPOCH   = 587
BSTAR          = .82667E-3
MEAN_MOTION_DOT = .48449E-3
MEAN_MOTION_DDOT = 0

CCSDS_OMM_VERS = 2.0
CREATION_DATE  = 
ORIGINATOR     = 

OBJECT_NAME    = STARLINK-36848
OBJECT_ID      = 2026-037E
CENTER_NAME    = EARTH
REF_FRAME      = TEME
TIME_SYSTEM    = UTC
MEAN_ELEMENT_THEORY = SGP/SGP4

EPOCH          = 2026-03-26T08:07:46.417152
MEAN_MOTION    = 15.50581790
ECCENTRICITY   = .0002059
INCLINATION    = 43.0021
RA_OF_ASC_NODE = 98.7439
ARG_OF_PERICENTER = 276.4368
MEAN_ANOMALY   = 83.6257

EPHEMERIS_TYPE = 0
CLASSIFICATION_TYPE = U
NORAD_CAT_ID   = 67936
ELEMENT_SET_NO = 999
REV_AT_EPOCH   = 586
BSTAR          = .1059E-2
MEAN_MOTION_DOT = .62287E-3
MEAN_MOTION_DDOT = 0

CCSDS_OMM_VERS = 2.0
CREATION_DATE  = 
ORIGINATOR     = 

OBJECT_NAME    = STARLINK-36370
OBJECT_ID      = 2026-037F
CENTER_NAME    = EARTH
REF_FRAME      = TEME
TIME_SYSTEM    = UTC
MEAN_ELEMENT_THEORY = SGP/SGP4

EPOCH          = 2026-03-26T09:18:09.935136
MEAN_MOTION    = 15.50605787
ECCENTRICITY   = .000212
INCLINATION    = 43.0018
RA_OF_ASC_NODE = 98.2452
ARG_OF_PERICENTER = 265.8555
MEAN_ANOMALY   = 94.2063

EPHEMERIS_TYPE = 0
CLASSIFICATION_TYPE = U
NORAD_CAT_ID   = 67937
ELEMENT_SET_NO = 999
REV_AT_EPOCH   = 587
BSTAR          = .99725E-3
MEAN_MOTION_DOT = .58659E-3
MEAN_MOTION_DDOT = 0

CCSDS_OMM_VERS = 2.0
CREATION_DATE  = 
ORIGINATOR     = 

OBJECT_NAME    = STARLINK-36371
OBJECT_ID      = 2026-037G
CENTER_NAME    = EARTH
REF_FRAME      = TEME
TIME_SYSTEM    = UTC
MEAN_ELEMENT_THEORY = SGP/SGP4

EPOCH          = 2026-03-26T12:00:01.999296
MEAN_MOTION    = 15.50505507
ECCENTRICITY   = .0001416
INCLINATION    = 43.0003
RA_OF_ASC_NODE = 97.3065
ARG_OF_PERICENTER = 276.8891
MEAN_ANOMALY   = 105.2769

EPHEMERIS_TYPE = 0
CLASSIFICATION_TYPE = U
NORAD_CAT_ID   = 67938
ELEMENT_SET_NO = 999
REV_AT_EPOCH   = 590
BSTAR          = .26685E-2
MEAN_MOTION_DOT = .159009E-2
MEAN_MOTION_DDOT = 0

CCSDS_OMM_VERS = 2.0
CREATION_DATE  = 
ORIGINATOR     = 

OBJECT_NAME    = STARLINK-36246
OBJECT_ID      = 2026-037H
CENTER_NAME    = EARTH
REF_FRAME      = TEME
TIME_SYSTEM    = UTC
MEAN_ELEMENT_THEORY = SGP/SGP4

EPOCH          = 2026-03-26T07:59:57.120864
MEAN_MOTION    = 15.50584947
ECCENTRICITY   = .0001313
INCLINATION    = 42.9987
RA_OF_ASC_NODE = 98.6964
ARG_OF_PERICENTER = 273.0300
MEAN_ANOMALY   = 87.0410

EPHEMERIS_TYPE = 0
CLASSIFICATION_TYPE = U
NORAD_CAT_ID   = 67939
ELEMENT_SET_NO = 999
REV_AT_EPOCH   = 586
BSTAR          = .13142E-2
MEAN_MOTION_DOT = .77538E-3
MEAN_MOTION_DDOT = 0

CCSDS_OMM_VERS = 2.0
CREATION_DATE  = 
ORIGINATOR     = 

OBJECT_NAME    = STARLINK-36907
OBJECT_ID      = 2026-037J
CENTER_NAME    = EARTH
REF_FRAME      = TEME
TIME_SYSTEM    = UTC
MEAN_ELEMENT_THEORY = SGP/SGP4

EPOCH          = 2026-03-26T12:00:01.999296
MEAN_MOTION    = 15.50504513
ECCENTRICITY   = .0001201
INCLINATION    = 43.0002
RA_OF_ASC_NODE = 96.9336
ARG_OF_PERICENTER = 280.6845
MEAN_ANOMALY   = 251.9788

EPHEMERIS_TYPE = 0
CLASSIFICATION_TYPE = U
NORAD_CAT_ID   = 67940
ELEMENT_SET_NO = 999
REV_AT_EPOCH   = 590
BSTAR          = .19446E-2
MEAN_MOTION_DOT = .115122E-2
MEAN_MOTION_DDOT = 0

CCSDS_OMM_VERS = 2.0
CREATION_DATE  = 
ORIGINATOR     = 

OBJECT_NAME    = STARLINK-36927
OBJECT_ID      = 2026-037K
CENTER_NAME    = EARTH
REF_FRAME      = TEME
TIME_SYSTEM    = UTC
MEAN_ELEMENT_THEORY = SGP/SGP4

EPOCH          = 2026-03-26T12:00:01.999296
MEAN_MOTION    = 15.50504180
ECCENTRICITY   = .0001205
INCLINATION    = 43.0002
RA_OF_ASC_NODE = 97.0995
ARG_OF_PERICENTER = 265.6274
MEAN_ANOMALY   = 199.6285

EPHEMERIS_TYPE = 0
CLASSIFICATION_TYPE = U
NORAD_CAT_ID   = 67941
ELEMENT_SET_NO = 999
REV_AT_EPOCH   = 590
BSTAR          = .26917E-2
MEAN_MOTION_DOT = .160419E-2
MEAN_MOTION_DDOT = 0

CCSDS_OMM_VERS = 2.0
CREATION_DATE  = 
ORIGINATOR     = 

OBJECT_NAME    = STARLINK-36914
OBJECT_ID      = 2026-037L
CENTER_NAME    = EARTH
REF_FRAME      = TEME
TIME_SYSTEM    = UTC
MEAN_ELEMENT_THEORY = SGP/SGP4

EPOCH          = 2026-03-26T12:00:01.999296
MEAN_MOTION    = 15.50518987
ECCENTRICITY   = .0001982
INCLINATION    = 43.0001
RA_OF_ASC_NODE = 96.6758
ARG_OF_PERICENTER = 289.5889
MEAN_ANOMALY   = 347.5917

EPHEMERIS_TYPE = 0
CLASSIFICATION_TYPE = U
NORAD_CAT_ID   = 67942
ELEMENT_SET_NO = 999
REV_AT_EPOCH   = 590
BSTAR          = .19799E-2
MEAN_MOTION_DOT = .117316E-2
MEAN_MOTION_DDOT = 0

CCSDS_OMM_VERS = 2.0
CREATION_DATE  = 
ORIGINATOR     = 

OBJECT_NAME    = STARLINK-36851
OBJECT_ID      = 2026-037M
CENTER_NAME    = EARTH
REF_FRAME      = TEME
TIME_SYSTEM    = UTC
MEAN_ELEMENT_THEORY = SGP/SGP4

EPOCH          = 2026-03-26T12:00:01.999296
MEAN_MOTION    = 15.50503533
ECCENTRICITY   = .0001303
INCLINATION    = 43.0003
RA_OF_ASC_NODE = 97.0657
ARG_OF_PERICENTER = 296.4462
MEAN_ANOMALY   = 182.7565

EPHEMERIS_TYPE = 0
CLASSIFICATION_TYPE = U
NORAD_CAT_ID   = 67943
ELEMENT_SET_NO = 999
REV_AT_EPOCH   = 590
BSTAR          = .19543E-2
MEAN_MOTION_DOT = .115703E-2
MEAN_MOTION_DDOT = 0

